EAGLET-I                
1 43790U 18099AJ  26068.68676861  .00006017  00000+0  35262-3 0  9994
2 43790  97.4369 120.9821 0010486 336.8524  23.2233 15.12108144397298
STARLINK-4034           
1 52700U 22053AW  26068.48740855  .00000200  00000+0  30641-4 0  9998
2 52700  53.2168 149.6722 0001505  83.6284 276.4879 15.08836902211069
